25286,IRIDIUM 63,1998,100.28,-1.0,-,86.4,Inactive,0,LEO,Kazakhstan,USA,Unknown,Unknown,Unknown,1 25286U 98021B   24236.42037501  .00001342  00000+0  45639-3 0  9991,2 25286  86.4009 206.8672 0002452  92.6540 267.4937 14.35918255381106,14.35918255,0.0002452,LEO
25319,IRIDIUM 69,1998,99.99,-1.0,-,86.4,Inactive,0,LEO,PRC,USA,Unknown,Unknown,Unknown,1 25319U 98026A   24236.49912485  .00001064  00000+0  33069-3 0  9998,2 25319  86.3975 221.0091 0000643  13.7676 346.3540 14.40170910380203,14.4017091,6.43e-05,LEO
25320,IRIDIUM 71,1998,99.97,-1.0,-,86.4,Inactive,0,LEO,PRC,USA,Unknown,Unknown,Unknown,1 25320U 98026B   24236.48479621  .00001215  00000+0  37618-3 0  9991,2 25320  86.3984 215.7648 0002896  42.7391 317.4033 14.40480394380724,14.40480394,0.0002896,LEO
25344,IRIDIUM 73,1998,99.26,-1.0,-,86.45,Inactive,0,LEO,USA,USA,Unknown,Unknown,Unknown,1 25344U 98032C   24236.55554927  .00001874  00000+0  47123-3 0  9998,2 25344  86.4488 173.1004 0001945  83.1696 276.9730 14.50772997387391,14.50772997,0.0001945,LEO
25467,IRIDIUM 82,1998,95.16,-1.0,-,86.37,Inactive,0,LEO,USA,USA,Unknown,Unknown,Unknown,1 25467U 98051A   24236.53211375  .00023492  00000+0  11076-2 0  9997,2 25467  86.3695 253.7446 0118542 333.5502  25.9715 15.13235704378666,15.13235704,0.0118542,LEO
